{"fetched_at":"2026-07-08T07:03:33.083Z","source":"https://celestrak.org/NORAD/elements/gp.php?GROUP=kuiper&FORMAT=JSON","constellation":"kuiper","records":[{"OBJECT_NAME":"KUIPER-00027","OBJECT_ID":"2025-088S","EPOCH":"2026-07-07T06:08:18.858912","CLASSIFICATION_TYPE":"U","MEAN_MOTION":14.79924452,"ECCENTRICITY":0.00005997,"INCLINATION":51.9015,"RA_OF_ASC_NODE":286.8788,"ARG_OF_PERICENTER":81.6867,"MEAN_ANOMALY":278.4163,"EPHEMERIS_TYPE":0,"NORAD_CAT_ID":63740,"ELEMENT_SET_NO":999,"REV_AT_EPOCH":6532,"BSTAR":-0.000068265651,"MEAN_MOTION_DOT":-0.00000741,"MEAN_MOTION_DDOT":0},{"OBJECT_NAME":"KUIPER-00028","OBJECT_ID":"2025-088T","EPOCH":"2026-07-07T07:00:48.907872","CLASSIFICATION_TYPE":"U","MEAN_MOTION":14.79925639,"ECCENTRICITY":0.00006729,"INCLINATION":51.9015,"RA_OF_ASC_NODE":284.1678,"ARG_OF_PERICENTER":112.1965,"MEAN_ANOMALY":247.9069,"EPHEMERIS_TYPE":0,"NORAD_CAT_ID":63741,"ELEMENT_SET_NO":999,"REV_AT_EPOCH":6577,"BSTAR":-0.00008741582,"MEAN_MOTION_DOT":-0.00000887,"MEAN_MOTION_DDOT":0},{"OBJECT_NAME":"KUIPER-00029","OBJECT_ID":"2025-088U","EPOCH":"2026-07-06T12:36:33.098112","CLASSIFICATION_TYPE":"U","MEAN_MOTION":14.79906344,"ECCENTRICITY":0.00002875,"INCLINATION":51.9015,"RA_OF_ASC_NODE":286.243,"ARG_OF_PERICENTER":170.0554,"MEAN_ANOMALY":190.0415,"EPHEMERIS_TYPE":0,"NORAD_CAT_ID":63742,"ELEMENT_SET_NO":999,"REV_AT_EPOCH":6520,"BSTAR":-0.000079544099,"MEAN_MOTION_DOT":-0.00000827,"MEAN_MOTION_DDOT":0},{"OBJECT_NAME":"KUIPER-00030","OBJECT_ID":"2025-088V","EPOCH":"2026-07-07T07:22:15.412512","CLASSIFICATION_TYPE":"U","MEAN_MOTION":14.7992361,"ECCENTRICITY":0.00006732,"INCLINATION":51.9021,"RA_OF_ASC_NODE":301.6101,"ARG_OF_PERICENTER":112.9416,"MEAN_ANOMALY":247.1618,"EPHEMERIS_TYPE":0,"NORAD_CAT_ID":63743,"ELEMENT_SET_NO":999,"REV_AT_EPOCH":6534,"BSTAR":-0.000006397903,"MEAN_MOTION_DOT":-0.0000027,"MEAN_MOTION_DDOT":0},{"OBJECT_NAME":"KUIPER-00031","OBJECT_ID":"2025-088W","EPOCH":"2026-07-07T07:52:11.128512","CLASSIFICATION_TYPE":"U","MEAN_MOTION":14.76529334,"ECCENTRICITY":0.00020254,"INCLINATION":51.9009,"RA_OF_ASC_NODE":286.2436,"ARG_OF_PERICENTER":179.1437,"MEAN_ANOMALY":180.9528,"EPHEMERIS_TYPE":0,"NORAD_CAT_ID":63744,"ELEMENT_SET_NO":999,"REV_AT_EPOCH":6527,"BSTAR":0.00038331834,"MEAN_MOTION_DOT":0.00002482,"MEAN_MOTION_DDOT":0},{"OBJECT_NAME":"KUIPER-00032","OBJECT_ID":"2025-088X","EPOCH":"2026-07-07T08:06:24.960096","CLASSIFICATION_TYPE":"U","MEAN_MOTION":15.40764051,"ECCENTRICITY":0.00034032,"INCLINATION":51.866,"RA_OF_ASC_NODE":164.0884,"ARG_OF_PERICENTER":180.1828,"MEAN_ANOMALY":179.9159,"EPHEMERIS_TYPE":0,"NORAD_CAT_ID":63745,"ELEMENT_SET_NO":999,"REV_AT_EPOCH":6797,"BSTAR":0.00027649664,"MEAN_MOTION_DOT":0.00011108,"MEAN_MOTION_DDOT":0},{"OBJECT_NAME":"KUIPER-00033","OBJECT_ID":"2025-088Y","EPOCH":"2026-07-07T09:24:49.339872","CLASSIFICATION_TYPE":"U","MEAN_MOTION":14.79917848,"ECCENTRICITY":0.00007498,"INCLINATION":51.9017,"RA_OF_ASC_NODE":316.2571,"ARG_OF_PERICENTER":115.5087,"MEAN_ANOMALY":244.5953,"EPHEMERIS_TYPE":0,"NORAD_CAT_ID":63746,"ELEMENT_SET_NO":999,"REV_AT_EPOCH":6534,"BSTAR":0.00015619047,"MEAN_MOTION_DOT":0.00000969,"MEAN_MOTION_DDOT":0},{"OBJECT_NAME":"KUIPER-00034","OBJECT_ID":"2025-088Z","EPOCH":"2026-07-07T07:08:33.348480","CLASSIFICATION_TYPE":"U","MEAN_MOTION":14.79933468,"ECCENTRICITY":0.00013403,"INCLINATION":51.9008,"RA_OF_ASC_NODE":279.2069,"ARG_OF_PERICENTER":105.3354,"MEAN_ANOMALY":254.7756,"EPHEMERIS_TYPE":0,"NORAD_CAT_ID":63747,"ELEMENT_SET_NO":999,"REV_AT_EPOCH":6553,"BSTAR":-0.00048938945,"MEAN_MOTION_DOT":-0.0000395,"MEAN_MOTION_DDOT":0},{"OBJECT_NAME":"KUIPER-00035","OBJECT_ID":"2025-088AA","EPOCH":"2026-07-07T08:07:00.022944","CLASSIFICATION_TYPE":"U","MEAN_MOTION":14.79923375,"ECCENTRICITY":0.00007255,"INCLINATION":51.9017,"RA_OF_ASC_NODE":304.0044,"ARG_OF_PERICENTER":114.5492,"MEAN_ANOMALY":245.5546,"EPHEMERIS_TYPE":0,"NORAD_CAT_ID":63748,"ELEMENT_SET_NO":999,"REV_AT_EPOCH":6524,"BSTAR":0.000008535039,"MEAN_MOTION_DOT":-0.00000156,"MEAN_MOTION_DDOT":0},{"OBJECT_NAME":"KUIPER-00037","OBJECT_ID":"2025-088AB","EPOCH":"2026-07-07T07:56:48.063840","CLASSIFICATION_TYPE":"U","MEAN_MOTION":14.79923653,"ECCENTRICITY":0.00004978,"INCLINATION":51.9016,"RA_OF_ASC_NODE":302.8921,"ARG_OF_PERICENTER":94.24,"MEAN_ANOMALY":265.8619,"EPHEMERIS_TYPE":0,"NORAD_CAT_ID":63749,"ELEMENT_SET_NO":999,"REV_AT_EPOCH":6604,"BSTAR":0.000053324957,"MEAN_MOTION_DOT":0.00000185,"MEAN_MOTION_DDOT":0},{"OBJECT_NAME":"KUIPER-00038","OBJECT_ID":"2025-088AC","EPOCH":"2026-07-07T06:04:26.056704","CLASSIFICATION_TYPE":"U","MEAN_MOTION":14.79925691,"ECCENTRICITY":0.00006582,"INCLINATION":51.9044,"RA_OF_ASC_NODE":289.4043,"ARG_OF_PERICENTER":84.0209,"MEAN_ANOMALY":276.0829,"EPHEMERIS_TYPE":0,"NORAD_CAT_ID":63750,"ELEMENT_SET_NO":999,"REV_AT_EPOCH":6522,"BSTAR":-0.000002584213,"MEAN_MOTION_DOT":-0.00000241,"MEAN_MOTION_DDOT":0},{"OBJECT_NAME":"KUIPER-00039","OBJECT_ID":"2025-134A","EPOCH":"2026-07-06T21:18:42.435360","CLASSIFICATION_TYPE":"U","MEAN_MOTION":14.79923806,"ECCENTRICITY":0.00006881,"INCLINATION":51.9012,"RA_OF_ASC_NODE":66.0147,"ARG_OF_PERICENTER":100.2724,"MEAN_ANOMALY":259.8316,"EPHEMERIS_TYPE":0,"NORAD_CAT_ID":64500,"ELEMENT_SET_NO":999,"REV_AT_EPOCH":5772,"BSTAR":-0.00012063565,"MEAN_MOTION_DOT":-0.0000114,"MEAN_MOTION_DDOT":0},{"OBJECT_NAME":"KUIPER-00040","OBJECT_ID":"2025-134B","EPOCH":"2026-07-06T21:51:48.564000","CLASSIFICATION_TYPE":"U","MEAN_MOTION":14.79925563,"ECCENTRICITY":0.00007879,"INCLINATION":51.8973,"RA_OF_ASC_NODE":75.9945,"ARG_OF_PERICENTER":98.6206,"MEAN_ANOMALY":261.4845,"EPHEMERIS_TYPE":0,"NORAD_CAT_ID":64501,"ELEMENT_SET_NO":999,"REV_AT_EPOCH":5758,"BSTAR":-0.00022217157,"MEAN_MOTION_DOT":-0.00001914,"MEAN_MOTION_DDOT":0},{"OBJECT_NAME":"KUIPER-00041","OBJECT_ID":"2025-134C","EPOCH":"2026-07-07T01:51:01.337184","CLASSIFICATION_TYPE":"U","MEAN_MOTION":14.7992614,"ECCENTRICITY":0.00007076,"INCLINATION":51.899,"RA_OF_ASC_NODE":77.6449,"ARG_OF_PERICENTER":98.473,"MEAN_ANOMALY":261.6313,"EPHEMERIS_TYPE":0,"NORAD_CAT_ID":64502,"ELEMENT_SET_NO":999,"REV_AT_EPOCH":5757,"BSTAR":0.000024100336,"MEAN_MOTION_DOT":-3.7e-7,"MEAN_MOTION_DDOT":0},{"OBJECT_NAME":"KUIPER-00042","OBJECT_ID":"2025-134D","EPOCH":"2026-07-07T02:47:24.040608","CLASSIFICATION_TYPE":"U","MEAN_MOTION":14.79920317,"ECCENTRICITY":0.00007259,"INCLINATION":51.8981,"RA_OF_ASC_NODE":72.4472,"ARG_OF_PERICENTER":105.8363,"MEAN_ANOMALY":254.2679,"EPHEMERIS_TYPE":0,"NORAD_CAT_ID":64503,"ELEMENT_SET_NO":999,"REV_AT_EPOCH":5765,"BSTAR":-0.00025702074,"MEAN_MOTION_DOT":-0.00002179,"MEAN_MOTION_DDOT":0},{"OBJECT_NAME":"KUIPER-00043","OBJECT_ID":"2025-134E","EPOCH":"2026-07-07T01:21:48.466080","CLASSIFICATION_TYPE":"U","MEAN_MOTION":14.79926022,"ECCENTRICITY":0.00007464,"INCLINATION":51.9013,"RA_OF_ASC_NODE":65.2097,"ARG_OF_PERICENTER":90.8422,"MEAN_ANOMALY":269.2626,"EPHEMERIS_TYPE":0,"NORAD_CAT_ID":64504,"ELEMENT_SET_NO":999,"REV_AT_EPOCH":5775,"BSTAR":-0.000011368785,"MEAN_MOTION_DOT":-0.00000308,"MEAN_MOTION_DDOT":0}]}
